{
  "type": "FeatureCollection",
  "features": [
    {
      "type": "Feature",
      "properties": {
        "norad_id": 31005,
        "name": "FENGYUN 1C DEB",
        "group": "fengyun-1c-debris",
        "lat": -29.911022672858383,
        "lon": 129.66290039330082,
        "alt_km": 831.1075016603636,
        "timestamp": "2025-12-17T07:00:47.184425+00:00",
        "meta_object_name": "FENGYUN 1C DEB",
        "meta_object_id": "1999-025BCX",
        "meta_epoch": "2025-12-15T19:29:53.613312",
        "meta_mean_motion": 13.83288039,
        "meta_eccentricity": 0.01806753,
        "meta_inclination": 98.6129,
        "meta_ra_of_asc_node": 123.3053,
        "meta_arg_of_pericenter": 317.0001,
        "meta_mean_anomaly": 207.1416,
        "meta_ephemeris_type": 0,
        "meta_classification_type": "U",
        "meta_norad_cat_id": 31005,
        "meta_element_set_no": 999,
        "meta_rev_at_epoch": 94323,
        "meta_bstar": 0.0011503452,
        "meta_mean_motion_dot": 1.392e-05,
        "meta_mean_motion_ddot": 0,
        "tle_line1": "1 31005U 99025BCX 25349.81242608  .00001392  00000+0  11503-2 0  9994",
        "tle_line2": "2 31005  98.6129 123.3053 0180675 317.0001 207.1416 13.83288039943239"
      },
      "geometry": {
        "type": "Point",
        "coordinates": [
          129.66290039330082,
          -29.911022672858383
        ]
      }
    },
    {
      "type": "Feature",
      "properties": {
        "norad_id": 31007,
        "name": "FENGYUN 1C DEB",
        "group": "fengyun-1c-debris",
        "lat": -9.949836530602632,
        "lon": 161.54617764080487,
        "alt_km": 747.5679843440503,
        "timestamp": "2025-12-17T07:00:47.184436+00:00",
        "meta_object_name": "FENGYUN 1C DEB",
        "meta_object_id": "1999-025BCZ",
        "meta_epoch": "2025-12-16T10:23:33.414432",
        "meta_mean_motion": 14.58723259,
        "meta_eccentricity": 0.00672562,
        "meta_inclination": 98.0874,
        "meta_ra_of_asc_node": 342.1391,
        "meta_arg_of_pericenter": 26.7793,
        "meta_mean_anomaly": 333.6853,
        "meta_ephemeris_type": 0,
        "meta_classification_type": "U",
        "meta_norad_cat_id": 31007,
        "meta_element_set_no": 999,
        "meta_rev_at_epoch": 98148,
        "meta_bstar": 0.0015916804,
        "meta_mean_motion_dot": 7.623e-05,
        "meta_mean_motion_ddot": 0,
        "tle_line1": "1 31007U 99025BCZ 25350.43302563  .00007623  00000+0  15917-2 0  9999",
        "tle_line2": "2 31007  98.0874 342.1391 0067256  26.7793 333.6853 14.58723259981489"
      },
      "geometry": {
        "type": "Point",
        "coordinates": [
          161.54617764080487,
          -9.949836530602632
        ]
      }
    },
    {
      "type": "Feature",
      "properties": {
        "norad_id": 31009,
        "name": "FENGYUN 1C DEB",
        "group": "fengyun-1c-debris",
        "lat": -44.32055128518556,
        "lon": 158.1943179933959,
        "alt_km": 860.6441346732199,
        "timestamp": "2025-12-17T07:00:47.184446+00:00",
        "meta_object_name": "FENGYUN 1C DEB",
        "meta_object_id": "1999-025BDB",
        "meta_epoch": "2025-12-16T23:20:56.609952",
        "meta_mean_motion": 14.00366049,
        "meta_eccentricity": 0.00529697,
        "meta_inclination": 98.8968,
        "meta_ra_of_asc_node": 346.6824,
        "meta_arg_of_pericenter": 225.2631,
        "meta_mean_anomaly": 190.664,
        "meta_ephemeris_type": 0,
        "meta_classification_type": "U",
        "meta_norad_cat_id": 31009,
        "meta_element_set_no": 999,
        "meta_rev_at_epoch": 95920,
        "meta_bstar": 8.692183e-05,
        "meta_mean_motion_dot": 8.7e-07,
        "meta_mean_motion_ddot": 0,
        "tle_line1": "1 31009U 99025BDB 25350.97287743  .00000087  00000+0  86922-4 0  9995",
        "tle_line2": "2 31009  98.8968 346.6824 0052969 225.2631 190.6640 14.00366049959202"
      },
      "geometry": {
        "type": "Point",
        "coordinates": [
          158.1943179933959,
          -44.32055128518556
        ]
      }
    },
    {
      "type": "Feature",
      "properties": {
        "norad_id": 31010,
        "name": "FENGYUN 1C DEB",
        "group": "fengyun-1c-debris",
        "lat": -14.903519407100434,
        "lon": 142.97690126185745,
        "alt_km": 728.6946725640573,
        "timestamp": "2025-12-17T07:00:47.184474+00:00",
        "meta_object_name": "FENGYUN 1C DEB",
        "meta_object_id": "1999-025BDC",
        "meta_epoch": "2025-12-16T09:11:25.666080",
        "meta_mean_motion": 14.25861297,
        "meta_eccentricity": 0.01133968,
        "meta_inclination": 101.7243,
        "meta_ra_of_asc_node": 138.5959,
        "meta_arg_of_pericenter": 344.8959,
        "meta_mean_anomaly": 14.8834,
        "meta_ephemeris_type": 0,
        "meta_classification_type": "U",
        "meta_norad_cat_id": 31010,
        "meta_element_set_no": 999,
        "meta_rev_at_epoch": 95681,
        "meta_bstar": 0.0022654487,
        "meta_mean_motion_dot": 5.704e-05,
        "meta_mean_motion_ddot": 0,
        "tle_line1": "1 31010U 99025BDC 25350.38293595  .00005704  00000+0  22654-2 0  9995",
        "tle_line2": "2 31010 101.7243 138.5959 0113396 344.8959  14.8834 14.25861297956812"
      },
      "geometry": {
        "type": "Point",
        "coordinates": [
          142.97690126185745,
          -14.903519407100434
        ]
      }
    },
    {
      "type": "Feature",
      "properties": {
        "norad_id": 31012,
        "name": "FENGYUN 1C DEB",
        "group": "fengyun-1c-debris",
        "lat": 59.95513178612281,
        "lon": 85.22318781650901,
        "alt_km": 821.2843022823017,
        "timestamp": "2025-12-17T07:00:47.184499+00:00",
        "meta_object_name": "FENGYUN 1C DEB",
        "meta_object_id": "1999-025BDE",
        "meta_epoch": "2025-12-15T11:34:46.406784",
        "meta_mean_motion": 14.27865689,
        "meta_eccentricity": 0.00813642,
        "meta_inclination": 98.9116,
        "meta_ra_of_asc_node": 247.6374,
        "meta_arg_of_pericenter": 243.3596,
        "meta_mean_anomaly": 298.866,
        "meta_ephemeris_type": 0,
        "meta_classification_type": "U",
        "meta_norad_cat_id": 31012,
        "meta_element_set_no": 999,
        "meta_rev_at_epoch": 97786,
        "meta_bstar": 0.00018971931,
        "meta_mean_motion_dot": 4.39e-06,
        "meta_mean_motion_ddot": 0,
        "tle_line1": "1 31012U 99025BDE 25349.48248156  .00000439  00000+0  18972-3 0  9998",
        "tle_line2": "2 31012  98.9116 247.6374 0081364 243.3596 298.8660 14.27865689977862"
      },
      "geometry": {
        "type": "Point",
        "coordinates": [
          85.22318781650901,
          59.95513178612281
        ]
      }
    },
    {
      "type": "Feature",
      "properties": {
        "norad_id": 31014,
        "name": "FENGYUN 1C DEB",
        "group": "fengyun-1c-debris",
        "lat": -73.82129488685328,
        "lon": 114.19236202440302,
        "alt_km": 889.8208278583788,
        "timestamp": "2025-12-17T07:00:47.184515+00:00",
        "meta_object_name": "FENGYUN 1C DEB",
        "meta_object_id": "1999-025BDG",
        "meta_epoch": "2025-12-16T21:31:10.718112",
        "meta_mean_motion": 13.98493373,
        "meta_eccentricity": 0.00879881,
        "meta_inclination": 98.869,
        "meta_ra_of_asc_node": 326.3697,
        "meta_arg_of_pericenter": 181.9029,
        "meta_mean_anomaly": 243.1225,
        "meta_ephemeris_type": 0,
        "meta_classification_type": "U",
        "meta_norad_cat_id": 31014,
        "meta_element_set_no": 999,
        "meta_rev_at_epoch": 95894,
        "meta_bstar": 9.4440037e-05,
        "meta_mean_motion_dot": 9.7e-07,
        "meta_mean_motion_ddot": 0,
        "tle_line1": "1 31014U 99025BDG 25350.89665183  .00000097  00000+0  94440-4 0  9995",
        "tle_line2": "2 31014  98.8690 326.3697 0087988 181.9029 243.1225 13.98493373958941"
      },
      "geometry": {
        "type": "Point",
        "coordinates": [
          114.19236202440302,
          -73.82129488685328
        ]
      }
    },
    {
      "type": "Feature",
      "properties": {
        "norad_id": 31016,
        "name": "FENGYUN 1C DEB",
        "group": "fengyun-1c-debris",
        "lat": 8.32377315275481,
        "lon": -171.77284789205314,
        "alt_km": 789.7234261492249,
        "timestamp": "2025-12-17T07:00:47.184526+00:00",
        "meta_object_name": "FENGYUN 1C DEB",
        "meta_object_id": "1999-025BDJ",
        "meta_epoch": "2025-12-16T23:46:21.194112",
        "meta_mean_motion": 14.30501534,
        "meta_eccentricity": 0.01120083,
        "meta_inclination": 98.4362,
        "meta_ra_of_asc_node": 6.6903,
        "meta_arg_of_pericenter": 261.4884,
        "meta_mean_anomaly": 158.5116,
        "meta_ephemeris_type": 0,
        "meta_classification_type": "U",
        "meta_norad_cat_id": 31016,
        "meta_element_set_no": 999,
        "meta_rev_at_epoch": 97531,
        "meta_bstar": 0.00025479662,
        "meta_mean_motion_dot": 6.66e-06,
        "meta_mean_motion_ddot": 0,
        "tle_line1": "1 31016U 99025BDJ 25350.99052308  .00000666  00000+0  25480-3 0  9996",
        "tle_line2": "2 31016  98.4362   6.6903 0112008 261.4884 158.5116 14.30501534975312"
      },
      "geometry": {
        "type": "Point",
        "coordinates": [
          -171.77284789205314,
          8.32377315275481
        ]
      }
    }
  ]
}